STARLINK-36941          
1 67991U 26039F   26080.75939777  .00089694  00000+0  15159-2 0  9990
2 67991  42.9993 343.0238 0001423 257.3714 102.6987 15.50603029  3526
STARLINK-36950          
1 67992U 26039G   26081.16668981  .00013760  00000+0  24017-3 0  9998
2 67992  43.0001 340.2641 0001779 282.6935 346.3634 15.50554449  4883
STARLINK-36975          
1 67993U 26039H   26081.16668981  .00127954  00000+0  21591-2 0  9993
2 67993  43.0000 340.1666 0001638 284.0197  24.3315 15.50478682  4882
STARLINK-36993          
1 67994U 26039J   26081.16668981  .00139174  00000+0  23444-2 0  9990
2 67994  42.9995 339.4590 0001679 279.6348 315.4344 15.50480196  4883
STARLINK-36968          
1 67995U 26039K   26081.00002315  .00070059  00000+0  11933-2 0  9993
2 67995  42.9997 341.3417 0001392 263.3408 112.4555 15.50485382  4853
STARLINK-36979          
1 67996U 26039L   26081.16668981 -.01659989  00000+0 -30138-1 0  9993
2 67996  42.9997 339.3437 0001360 270.6541  10.7359 15.51880182  4880
STARLINK-36994          
1 67997U 26039M   26081.16668981  .00005806  00000+0  10479-3 0  9992
2 67997  42.9998 339.7046 0002046 276.5425 218.2975 15.50560094  4885
STARLINK-36988          
1 67998U 26039N   26081.16668981  .00027780  00000+0  47821-3 0  9999
2 67998  43.0000 339.6468 0001466 268.5678 250.0220 15.50547280  4884
STARLINK-36926          
1 67999U 26039P   26081.16668981  .00036116  00000+0  61938-3 0  9998
2 67999  42.9999 339.6811 0001407 268.5082 235.6668 15.50543257  4881
STARLINK-36931          
1 68000U 26039Q   26081.16668981  .00143746  00000+0  24195-2 0  9993
2 68000  42.9997 339.3998 0001995 272.1468 346.0429 15.50483808  4884
STARLINK-36903          
1 68001U 26039R   26081.16668981  .00156635  00000+0  26325-2 0  9992
2 68001  42.9999 339.6677 0002088 252.0285 257.6204 15.50472922  4885
STARLINK-36898          
1 68002U 26039S   26081.16668981  .00084735  00000+0  14362-2 0  9992
2 68002  42.9998 339.4426 0001668 268.4955 332.2466 15.50547211  4887
STARLINK-36862          
1 68003U 26039T   26081.16668981 -.01203767  00000+0 -22258-1 0  9996
2 68003  42.9996 339.5624 0001374 253.6725 297.9820 15.50912084  4887
STARLINK-36888          
1 68004U 26039U   26081.16668981 -.00011424  00000+0 -18922-3 0  9998
2 68004  42.9997 339.6167 0001066 260.9475 269.0154 15.50575836  4883
STARLINK-36910          
1 68005U 26039V   26081.16668981 -.00032059  00000+0 -54287-3 0  9990
2 68005  42.9992 339.3533 0001649 272.4136   4.4873 15.50578739  4886
STARLINK-36889          
1 68006U 26039W   26081.16668981  .00139829  00000+0  23558-2 0  9998
2 68006  42.9998 339.6825 0001205 274.7197 228.3224 15.50473630  4881
