[{"OBJECT_NAME":"STARLINK-36941","OBJECT_ID":"2026-039F","EPOCH":"2026-03-21T18:13:31.967328","MEAN_MOTION":15.50603029,"ECCENTRICITY":0.00014231,"INCLINATION":42.9993,"RA_OF_ASC_NODE":343.0238,"ARG_OF_PERICENTER":257.3714,"MEAN_ANOMALY":102.6987,"EPHEMERIS_TYPE":0,"CLASSIFICATION_TYPE":"U","NORAD_CAT_ID":67991,"ELEMENT_SET_NO":999,"REV_AT_EPOCH":352,"BSTAR":0.0015159471,"MEAN_MOTION_DOT":0.00089694,"MEAN_MOTION_DDOT":0},{"OBJECT_NAME":"STARLINK-36950","OBJECT_ID":"2026-039G","EPOCH":"2026-03-22T04:00:01.999584","MEAN_MOTION":15.50554449,"ECCENTRICITY":0.00017793,"INCLINATION":43.0001,"RA_OF_ASC_NODE":340.2641,"ARG_OF_PERICENTER":282.6935,"MEAN_ANOMALY":346.3634,"EPHEMERIS_TYPE":0,"CLASSIFICATION_TYPE":"U","NORAD_CAT_ID":67992,"ELEMENT_SET_NO":999,"REV_AT_EPOCH":488,"BSTAR":0.00024017039,"MEAN_MOTION_DOT":0.0001376,"MEAN_MOTION_DDOT":0},{"OBJECT_NAME":"STARLINK-36975","OBJECT_ID":"2026-039H","EPOCH":"2026-03-22T04:00:01.999584","MEAN_MOTION":15.50478682,"ECCENTRICITY":0.00016385,"INCLINATION":43,"RA_OF_ASC_NODE":340.1666,"ARG_OF_PERICENTER":284.0197,"MEAN_ANOMALY":24.3315,"EPHEMERIS_TYPE":0,"CLASSIFICATION_TYPE":"U","NORAD_CAT_ID":67993,"ELEMENT_SET_NO":999,"REV_AT_EPOCH":488,"BSTAR":0.0021590732,"MEAN_MOTION_DOT":0.00127954,"MEAN_MOTION_DDOT":0},{"OBJECT_NAME":"STARLINK-36993","OBJECT_ID":"2026-039J","EPOCH":"2026-03-22T04:00:01.999584","MEAN_MOTION":15.50480196,"ECCENTRICITY":0.00016793,"INCLINATION":42.9995,"RA_OF_ASC_NODE":339.459,"ARG_OF_PERICENTER":279.6348,"MEAN_ANOMALY":315.4344,"EPHEMERIS_TYPE":0,"CLASSIFICATION_TYPE":"U","NORAD_CAT_ID":67994,"ELEMENT_SET_NO":999,"REV_AT_EPOCH":488,"BSTAR":0.0023443862,"MEAN_MOTION_DOT":0.00139174,"MEAN_MOTION_DDOT":0},{"OBJECT_NAME":"STARLINK-36968","OBJECT_ID":"2026-039K","EPOCH":"2026-03-22T00:00:02.000160","MEAN_MOTION":15.50485382,"ECCENTRICITY":0.00013927,"INCLINATION":42.9997,"RA_OF_ASC_NODE":341.3417,"ARG_OF_PERICENTER":263.3408,"MEAN_ANOMALY":112.4555,"EPHEMERIS_TYPE":0,"CLASSIFICATION_TYPE":"U","NORAD_CAT_ID":67995,"ELEMENT_SET_NO":999,"REV_AT_EPOCH":485,"BSTAR":0.0011933122,"MEAN_MOTION_DOT":0.00070059,"MEAN_MOTION_DDOT":0},{"OBJECT_NAME":"STARLINK-36979","OBJECT_ID":"2026-039L","EPOCH":"2026-03-22T04:00:01.999584","MEAN_MOTION":15.51880182,"ECCENTRICITY":0.00013609,"INCLINATION":42.9997,"RA_OF_ASC_NODE":339.3437,"ARG_OF_PERICENTER":270.6541,"MEAN_ANOMALY":10.7359,"EPHEMERIS_TYPE":0,"CLASSIFICATION_TYPE":"U","NORAD_CAT_ID":67996,"ELEMENT_SET_NO":999,"REV_AT_EPOCH":488,"BSTAR":-0.030137568,"MEAN_MOTION_DOT":-0.01659989,"MEAN_MOTION_DDOT":0},{"OBJECT_NAME":"STARLINK-36994","OBJECT_ID":"2026-039M","EPOCH":"2026-03-22T04:00:01.999584","MEAN_MOTION":15.50560094,"ECCENTRICITY":0.00020465,"INCLINATION":42.9998,"RA_OF_ASC_NODE":339.7046,"ARG_OF_PERICENTER":276.5425,"MEAN_ANOMALY":218.2975,"EPHEMERIS_TYPE":0,"CLASSIFICATION_TYPE":"U","NORAD_CAT_ID":67997,"ELEMENT_SET_NO":999,"REV_AT_EPOCH":488,"BSTAR":0.00010479064,"MEAN_MOTION_DOT":5.806e-5,"MEAN_MOTION_DDOT":0},{"OBJECT_NAME":"STARLINK-36988","OBJECT_ID":"2026-039N","EPOCH":"2026-03-22T04:00:01.999584","MEAN_MOTION":15.5054728,"ECCENTRICITY":0.00014666,"INCLINATION":43,"RA_OF_ASC_NODE":339.6468,"ARG_OF_PERICENTER":268.5678,"MEAN_ANOMALY":250.022,"EPHEMERIS_TYPE":0,"CLASSIFICATION_TYPE":"U","NORAD_CAT_ID":67998,"ELEMENT_SET_NO":999,"REV_AT_EPOCH":488,"BSTAR":0.0004782108,"MEAN_MOTION_DOT":0.0002778,"MEAN_MOTION_DDOT":0},{"OBJECT_NAME":"STARLINK-36926","OBJECT_ID":"2026-039P","EPOCH":"2026-03-22T04:00:01.999584","MEAN_MOTION":15.50543257,"ECCENTRICITY":0.00014077,"INCLINATION":42.9999,"RA_OF_ASC_NODE":339.6811,"ARG_OF_PERICENTER":268.5082,"MEAN_ANOMALY":235.6668,"EPHEMERIS_TYPE":0,"CLASSIFICATION_TYPE":"U","NORAD_CAT_ID":67999,"ELEMENT_SET_NO":999,"REV_AT_EPOCH":488,"BSTAR":0.00061938,"MEAN_MOTION_DOT":0.00036116,"MEAN_MOTION_DDOT":0},{"OBJECT_NAME":"STARLINK-36931","OBJECT_ID":"2026-039Q","EPOCH":"2026-03-22T04:00:01.999584","MEAN_MOTION":15.50483808,"ECCENTRICITY":0.00019952,"INCLINATION":42.9997,"RA_OF_ASC_NODE":339.3998,"ARG_OF_PERICENTER":272.1468,"MEAN_ANOMALY":346.0429,"EPHEMERIS_TYPE":0,"CLASSIFICATION_TYPE":"U","NORAD_CAT_ID":68000,"ELEMENT_SET_NO":999,"REV_AT_EPOCH":488,"BSTAR":0.002419459,"MEAN_MOTION_DOT":0.00143746,"MEAN_MOTION_DDOT":0},{"OBJECT_NAME":"STARLINK-36903","OBJECT_ID":"2026-039R","EPOCH":"2026-03-22T04:00:01.999584","MEAN_MOTION":15.50472922,"ECCENTRICITY":0.00020889,"INCLINATION":42.9999,"RA_OF_ASC_NODE":339.6677,"ARG_OF_PERICENTER":252.0285,"MEAN_ANOMALY":257.6204,"EPHEMERIS_TYPE":0,"CLASSIFICATION_TYPE":"U","NORAD_CAT_ID":68001,"ELEMENT_SET_NO":999,"REV_AT_EPOCH":488,"BSTAR":0.0026325244,"MEAN_MOTION_DOT":0.00156635,"MEAN_MOTION_DDOT":0},{"OBJECT_NAME":"STARLINK-36898","OBJECT_ID":"2026-039S","EPOCH":"2026-03-22T04:00:01.999584","MEAN_MOTION":15.50547211,"ECCENTRICITY":0.00016685,"INCLINATION":42.9998,"RA_OF_ASC_NODE":339.4426,"ARG_OF_PERICENTER":268.4955,"MEAN_ANOMALY":332.2466,"EPHEMERIS_TYPE":0,"CLASSIFICATION_TYPE":"U","NORAD_CAT_ID":68002,"ELEMENT_SET_NO":999,"REV_AT_EPOCH":488,"BSTAR":0.0014362027,"MEAN_MOTION_DOT":0.00084735,"MEAN_MOTION_DDOT":0},{"OBJECT_NAME":"STARLINK-36862","OBJECT_ID":"2026-039T","EPOCH":"2026-03-22T04:00:01.999584","MEAN_MOTION":15.50912084,"ECCENTRICITY":0.00013746,"INCLINATION":42.9996,"RA_OF_ASC_NODE":339.5624,"ARG_OF_PERICENTER":253.6725,"MEAN_ANOMALY":297.982,"EPHEMERIS_TYPE":0,"CLASSIFICATION_TYPE":"U","NORAD_CAT_ID":68003,"ELEMENT_SET_NO":999,"REV_AT_EPOCH":488,"BSTAR":-0.02225846,"MEAN_MOTION_DOT":-0.01203767,"MEAN_MOTION_DDOT":0},{"OBJECT_NAME":"STARLINK-36888","OBJECT_ID":"2026-039U","EPOCH":"2026-03-22T04:00:01.999584","MEAN_MOTION":15.50575836,"ECCENTRICITY":0.00010665,"INCLINATION":42.9997,"RA_OF_ASC_NODE":339.6167,"ARG_OF_PERICENTER":260.9475,"MEAN_ANOMALY":269.0154,"EPHEMERIS_TYPE":0,"CLASSIFICATION_TYPE":"U","NORAD_CAT_ID":68004,"ELEMENT_SET_NO":999,"REV_AT_EPOCH":488,"BSTAR":-0.00018922397,"MEAN_MOTION_DOT":-0.00011424,"MEAN_MOTION_DDOT":0},{"OBJECT_NAME":"STARLINK-36910","OBJECT_ID":"2026-039V","EPOCH":"2026-03-22T04:00:01.999584","MEAN_MOTION":15.50578739,"ECCENTRICITY":0.00016496,"INCLINATION":42.9992,"RA_OF_ASC_NODE":339.3533,"ARG_OF_PERICENTER":272.4136,"MEAN_ANOMALY":4.4873,"EPHEMERIS_TYPE":0,"CLASSIFICATION_TYPE":"U","NORAD_CAT_ID":68005,"ELEMENT_SET_NO":999,"REV_AT_EPOCH":488,"BSTAR":-0.00054287303,"MEAN_MOTION_DOT":-0.00032059,"MEAN_MOTION_DDOT":0},{"OBJECT_NAME":"STARLINK-36889","OBJECT_ID":"2026-039W","EPOCH":"2026-03-22T04:00:01.999584","MEAN_MOTION":15.5047363,"ECCENTRICITY":0.00012053,"INCLINATION":42.9998,"RA_OF_ASC_NODE":339.6825,"ARG_OF_PERICENTER":274.7197,"MEAN_ANOMALY":228.3224,"EPHEMERIS_TYPE":0,"CLASSIFICATION_TYPE":"U","NORAD_CAT_ID":68006,"ELEMENT_SET_NO":999,"REV_AT_EPOCH":488,"BSTAR":0.0023557505,"MEAN_MOTION_DOT":0.00139829,"MEAN_MOTION_DDOT":0}]
